[Satellite]
VERSION=1.1
NAME=ECHO (AO-51)
NICKNAME=AO-51
TLE1=1 28375U 04025K   11059.00650830  .00000060  00000-0  30640-4 0  9076
TLE2=2 28375  98.0860  43.2585 0085075  41.2936 319.4646 14.40726816350342
